OBJECT B                
1 51825U 22019B   25070.91212542  .00028014  00000+0  81586-3 0  9990
2 51825  97.3945 146.9137 0010816  17.7413 342.4206 15.35309379168113
